start=new Date('2021-11-04T00:00:00.000Z').valueOf();
sats=[{"MEAN_MOTION_DDOT":"0.0000000000000","PERIAPSIS":"546.066","MEAN_ANOMALY":"283.9994","LAUNCH_DATE":"2021-02-04","ECCENTRICITY":"0.00016790","REF_FRAME":"TEME","MEAN_MOTION_DOT":"0.00003001","REV_AT_EPOCH":"4160","ELEMENT_SET_NO":"999","EPOCH":"2021-11-03T17:09:39.004992","SEMIMAJOR_AXIS":"6925.364","OBJECT_TYPE":"PAYLOAD","INCLINATION":"53.0534","NORAD_CAT_ID":"47583","ARG_OF_PERICENTER":"76.1181","BSTAR":"0.00022030000000","COUNTRY_CODE":"US","MEAN_ELEMENT_THEORY":"SGP4","CENTER_NAME":"EARTH","FILE":"3200165","MEAN_MOTION":"15.06394891","OBJECT_ID":"2021-009AM","CLASSIFICATION_TYPE":"U","OBJECT_NAME":"STARLINK-1987","DECAY_DATE":null,"RA_OF_ASC_NODE":"305.8300","APOAPSIS":"548.392","TLE_LINE1":"1 47583U 21009AM  21307.71503478  .00003001  00000-0  22030-3 0  9991","PERIOD":"95.592","EPHEMERIS_TYPE":"0","GP_ID":"188858395","SITE":"AFETR","RCS_SIZE":"LARGE","TLE_LINE2":"2 47583  53.0534 305.8300 0001679  76.1181 283.9994 15.06394891 41606","TIME_SYSTEM":"UTC"},{"MEAN_MOTION_DDOT":"0.0000000000000","PERIAPSIS":"374.470","ECCENTRICITY":"0.00079850","MEAN_ANOMALY":"81.6039","LAUNCH_DATE":"2021-02-04","REV_AT_EPOCH":"4255","REF_FRAME":"TEME","MEAN_MOTION_DOT":"-0.00001643","OBJECT_TYPE":"PAYLOAD","SEMIMAJOR_AXIS":"6758.002","INCLINATION":"53.0532","ELEMENT_SET_NO":"999","EPOCH":"2021-11-03T02:16:30.499680","COUNTRY_CODE":"US","CENTER_NAME":"EARTH","MEAN_ELEMENT_THEORY":"SGP4","NORAD_CAT_ID":"47584","ARG_OF_PERICENTER":"278.4069","BSTAR":"-0.00001202200000","CLASSIFICATION_TYPE":"U","OBJECT_ID":"2021-009AN","DECAY_DATE":null,"OBJECT_NAME":"STARLINK-1988","FILE":"3199758","MEAN_MOTION":"15.62698924","EPHEMERIS_TYPE":"0","PERIOD":"92.148","GP_ID":"188828373","SITE":"AFETR","TLE_LINE2":"2 47584  53.0532 234.0492 0007985 278.4069  81.6039 15.62698924 42552","RCS_SIZE":"LARGE","RA_OF_ASC_NODE":"234.0492","APOAPSIS":"385.263","TLE_LINE1":"1 47584U 21009AN  21307.09479745 -.00001643  00000-0 -12022-4 0  9995","TIME_SYSTEM":"UTC"},{"MEAN_ANOMALY":"337.2913","LAUNCH_DATE":"2021-02-04","ECCENTRICITY":"0.00065420","MEAN_MOTION_DDOT":"0.0000000000000","PERIAPSIS":"542.722","ELEMENT_SET_NO":"999","EPOCH":"2021-11-03T06:38:01.688352","INCLINATION":"53.0553","SEMIMAJOR_AXIS":"6925.388","OBJECT_TYPE":"PAYLOAD","MEAN_MOTION_DOT":"-0.00000554","REF_FRAME":"TEME","REV_AT_EPOCH":"4153","MEAN_MOTION":"15.06387266","FILE":"3199758","OBJECT_ID":"2021-009AP","CLASSIFICATION_TYPE":"U","DECAY_DATE":null,"OBJECT_NAME":"STARLINK-1989","BSTAR":"-0.00001813800000","ARG_OF_PERICENTER":"22.8366","NORAD_CAT_ID":"47585","MEAN_ELEMENT_THEORY":"SGP4","COUNTRY_CODE":"US","CENTER_NAME":"EARTH","TIME_SYSTEM":"UTC","RA_OF_ASC_NODE":"307.7877","APOAPSIS":"551.783","TLE_LINE1":"1 47585U 21009AP  21307.27640843 -.00000554  00000-0 -18138-4 0  9999","EPHEMERIS_TYPE":"0","PERIOD":"95.593","RCS_SIZE":"LARGE","TLE_LINE2":"2 47585  53.0553 307.7877 0006542  22.8366 337.2913 15.06387266 41530","SITE":"AFETR","GP_ID":"188827143"},{"CENTER_NAME":"EARTH","COUNTRY_CODE":"US","MEAN_ELEMENT_THEORY":"SGP4","NORAD_CAT_ID":"47586","ARG_OF_PERICENTER":"69.9577","BSTAR":"0.00014053000000","OBJECT_ID":"2021-009AQ","CLASSIFICATION_TYPE":"U","OBJECT_NAME":"STARLINK-1990","DECAY_DATE":null,"FILE":"3199758","MEAN_MOTION":"15.06399726","PERIOD":"95.592","EPHEMERIS_TYPE":"0","GP_ID":"188827392","SITE":"AFETR","TLE_LINE2":"2 47586  53.0544 326.6695 0001342  69.9577 290.1556 15.06399726 41295","RCS_SIZE":"LARGE","RA_OF_ASC_NODE":"326.6695","APOAPSIS":"548.144","TLE_LINE1":"1 47586U 21009AQ  21307.52519235  .00001812  00000-0  14053-3 0  9995","TIME_SYSTEM":"UTC","MEAN_MOTION_DDOT":"0.0000000000000","PERIAPSIS":"546.285","ECCENTRICITY":"0.00013420","MEAN_ANOMALY":"290.1556","LAUNCH_DATE":"2021-02-04","REV_AT_EPOCH":"4129","MEAN_MOTION_DOT":"0.00001812","REF_FRAME":"TEME","OBJECT_TYPE":"PAYLOAD","SEMIMAJOR_AXIS":"6925.349","INCLINATION":"53.0544","ELEMENT_SET_NO":"999","EPOCH":"2021-11-03T12:36:16.619040"},{"LAUNCH_DATE":"2021-02-04","MEAN_ANOMALY":"288.5593","ECCENTRICITY":"0.00016980","PERIAPSIS":"546.047","MEAN_MOTION_DDOT":"0.0000000000000","EPOCH":"2021-11-03T10:54:06.590880","ELEMENT_SET_NO":"999","OBJECT_TYPE":"PAYLOAD","SEMIMAJOR_AXIS":"6925.358","INCLINATION":"53.0562","MEAN_MOTION_DOT":"-0.00000510","REF_FRAME":"TEME","REV_AT_EPOCH":"4170","FILE":"3199758","MEAN_MOTION":"15.06396787","OBJECT_NAME":"STARLINK-1991","DECAY_DATE":null,"OBJECT_ID":"2021-009AR","CLASSIFICATION_TYPE":"U","NORAD_CAT_ID":"47587","BSTAR":"-0.00001532600000","ARG_OF_PERICENTER":"71.5581","COUNTRY_CODE":"US","CENTER_NAME":"EARTH","MEAN_ELEMENT_THEORY":"SGP4","TIME_SYSTEM":"UTC","APOAPSIS":"548.399","TLE_LINE1":"1 47587U 21009AR  21307.45424295 -.00000510  00000-0 -15326-4 0  9990","RA_OF_ASC_NODE":"296.9937","GP_ID":"188828144","SITE":"AFETR","TLE_LINE2":"2 47587  53.0562 296.9937 0001698  71.5581 288.5593 15.06396787 41704","RCS_SIZE":"LARGE","PERIOD":"95.592","EPHEMERIS_TYPE":"0"},{"MEAN_ANOMALY":"283.9064","LAUNCH_DATE":"2021-02-04","ECCENTRICITY":"0.00014440","MEAN_MOTION_DDOT":"0.0000000000000","PERIAPSIS":"546.222","ELEMENT_SET_NO":"999","EPOCH":"2021-11-03T17:04:19.186752","INCLINATION":"53.0540","OBJECT_TYPE":"PAYLOAD","SEMIMAJOR_AXIS":"6925.357","REF_FRAME":"TEME","MEAN_MOTION_DOT":"0.00001341","REV_AT_EPOCH":"4160","FILE":"3200165","MEAN_MOTION":"15.06397199","OBJECT_ID":"2021-009AS","CLASSIFICATION_TYPE":"U","DECAY_DATE":null,"OBJECT_NAME":"STARLINK-1993","ARG_OF_PERICENTER":"76.2086","BSTAR":"0.00010889000000","NORAD_CAT_ID":"47588","CENTER_NAME":"EARTH","COUNTRY_CODE":"US","MEAN_ELEMENT_THEORY":"SGP4","TIME_SYSTEM":"UTC","RA_OF_ASC_NODE":"305.8512","APOAPSIS":"548.222","TLE_LINE1":"1 47588U 21009AS  21307.71133318  .00001341  00000-0  10889-3 0  9992","EPHEMERIS_TYPE":"0","PERIOD":"95.592","TLE_LINE2":"2 47588  53.0540 305.8512 0001444  76.2086 283.9064 15.06397199 41600","RCS_SIZE":"LARGE","GP_ID":"188859147","SITE":"AFETR"},{"LAUNCH_DATE":"2021-02-04","MEAN_ANOMALY":"280.3434","ECCENTRICITY":"0.00015960","PERIAPSIS":"546.108","MEAN_MOTION_DDOT":"0.0000000000000","EPOCH":"2021-11-03T17:30:51.759072","ELEMENT_SET_NO":"999","OBJECT_TYPE":"PAYLOAD","SEMIMAJOR_AXIS":"6925.348","INCLINATION":"53.0560","REF_FRAME":"TEME","MEAN_MOTION_DOT":"0.00001700","REV_AT_EPOCH":"4160","FILE":"3200165","MEAN_MOTION":"15.06400106","OBJECT_NAME":"STARLINK-1994","DECAY_DATE":null,"CLASSIFICATION_TYPE":"U","OBJECT_ID":"2021-009AT","NORAD_CAT_ID":"47589","BSTAR":"0.00013299000000","ARG_OF_PERICENTER":"79.7735","COUNTRY_CODE":"US","MEAN_ELEMENT_THEORY":"SGP4","CENTER_NAME":"EARTH","TIME_SYSTEM":"UTC","APOAPSIS":"548.319","TLE_LINE1":"1 47589U 21009AT  21307.72976573  .00001700  00000-0  13299-3 0  9999","RA_OF_ASC_NODE":"305.7561","GP_ID":"188859398","SITE":"AFETR","TLE_LINE2":"2 47589  53.0560 305.7561 0001596  79.7735 280.3434 15.06400106 41608","RCS_SIZE":"LARGE","PERIOD":"95.592","EPHEMERIS_TYPE":"0"},{"PERIAPSIS":"546.309","MEAN_MOTION_DDOT":"0.0000000000000","LAUNCH_DATE":"2021-02-04","MEAN_ANOMALY":"290.3914","ECCENTRICITY":"0.00013470","MEAN_MOTION_DOT":"-0.00000386","REF_FRAME":"TEME","REV_AT_EPOCH":"4128","EPOCH":"2021-11-03T10:55:26.798592","ELEMENT_SET_NO":"999","OBJECT_TYPE":"PAYLOAD","SEMIMAJOR_AXIS":"6925.377","INCLINATION":"53.0560","NORAD_CAT_ID":"47590","BSTAR":"-0.00000700010000","ARG_OF_PERICENTER":"69.7219","CENTER_NAME":"EARTH","COUNTRY_CODE":"US","MEAN_ELEMENT_THEORY":"SGP4","MEAN_MOTION":"15.06390778","FILE":"3199758","OBJECT_NAME":"STARLINK-1995","DECAY_DATE":null,"CLASSIFICATION_TYPE":"U","OBJECT_ID":"2021-009AU","APOAPSIS":"548.175","TLE_LINE1":"1 47590U 21009AU  21307.45517128 -.00000386  00000-0 -70001-5 0  9995","RA_OF_ASC_NODE":"326.9864","SITE":"AFETR","GP_ID":"188827892","TLE_LINE2":"2 47590  53.0560 326.9864 0001347  69.7219 290.3914 15.06390778 41282","RCS_SIZE":"LARGE","PERIOD":"95.593","EPHEMERIS_TYPE":"0","TIME_SYSTEM":"UTC"},{"NORAD_CAT_ID":"47591","BSTAR":"0.00023463000000","ARG_OF_PERICENTER":"77.8895","COUNTRY_CODE":"US","MEAN_ELEMENT_THEORY":"SGP4","CENTER_NAME":"EARTH","MEAN_MOTION":"15.06398771","FILE":"3200165","DECAY_DATE":null,"OBJECT_NAME":"STARLINK-1996","OBJECT_ID":"2021-009AV","CLASSIFICATION_TYPE":"U","TLE_LINE1":"1 47591U 21009AV  21307.72607856  .00003215  00000-0  23463-3 0  9994","APOAPSIS":"548.284","RA_OF_ASC_NODE":"305.7601","GP_ID":"188858396","SITE":"AFETR","RCS_SIZE":"LARGE","TLE_LINE2":"2 47591  53.0544 305.7601 0001540  77.8895 282.2267 15.06398771 41602","PERIOD":"95.592","EPHEMERIS_TYPE":"0","TIME_SYSTEM":"UTC","PERIAPSIS":"546.151","MEAN_MOTION_DDOT":"0.0000000000000","LAUNCH_DATE":"2021-02-04","MEAN_ANOMALY":"282.2267","ECCENTRICITY":"0.00015400","MEAN_MOTION_DOT":"0.00003215","REF_FRAME":"TEME","REV_AT_EPOCH":"4160","EPOCH":"2021-11-03T17:25:33.187584","ELEMENT_SET_NO":"999","SEMIMAJOR_AXIS":"6925.352","OBJECT_TYPE":"PAYLOAD","INCLINATION":"53.0544"},{"LAUNCH_DATE":"2021-02-04","MEAN_ANOMALY":"283.2260","ECCENTRICITY":"0.00013980","PERIAPSIS":"546.288","MEAN_MOTION_DDOT":"0.0000000000000","EPOCH":"2021-11-03T13:24:03.661344","ELEMENT_SET_NO":"999","SEMIMAJOR_AXIS":"6925.391","OBJECT_TYPE":"PAYLOAD","INCLINATION":"53.0556","MEAN_MOTION_DOT":"-0.00001314","REF_FRAME":"TEME","REV_AT_EPOCH":"4129","MEAN_MOTION":"15.06386030","FILE":"3200165","DECAY_DATE":null,"OBJECT_NAME":"STARLINK-1997","OBJECT_ID":"2021-009AW","CLASSIFICATION_TYPE":"U","NORAD_CAT_ID":"47592","BSTAR":"-0.00006937900000","ARG_OF_PERICENTER":"76.8885","MEAN_ELEMENT_THEORY":"SGP4","COUNTRY_CODE":"US","CENTER_NAME":"EARTH","TIME_SYSTEM":"UTC","APOAPSIS":"548.225","TLE_LINE1":"1 47592U 21009AW  21307.55837571 -.00001314  00000-0 -69379-4 0  9992","RA_OF_ASC_NODE":"326.5363","SITE":"AFETR","GP_ID":"188859648","TLE_LINE2":"2 47592  53.0556 326.5363 0001398  76.8885 283.2260 15.06386030 41295","RCS_SIZE":"LARGE","PERIOD":"95.593","EPHEMERIS_TYPE":"0"}];
